[
    {
        "Altitude(m)": 710602.550220445,
        "Argument of Periapsis(deg)": 0.009112096949301655,
        "Eccentricity": 0.0,
        "Inclination(deg)": 45.0,
        "Latitude(deg)": -27.118381401131654,
        "Longitude(deg)": 13.764471610672334,
        "Mean Anomaly(deg)": -39.864326682015204,
        "RAAN(deg)": 144.99139844683344,
        "Satellite Name": "Constellation 1 657",
        "Satellite Number": 657,
        "Semi-Major Axis(m)": 7083131.272910544,
        "Time(s)": 152
    },
    {
        "Altitude(m)": 710588.6946392419,
        "Argument of Periapsis(deg)": 0.009172044955547059,
        "Eccentricity": 0.0,
        "Inclination(deg)": 45.0,
        "Latitude(deg)": -27.08131400524808,
        "Longitude(deg)": 13.814284232835067,
        "Mean Anomaly(deg)": -39.803625541765356,
        "RAAN(deg)": 144.9913418576679,
        "Satellite Name": "Constellation 1 657",
        "Satellite Number": 657,
        "Semi-Major Axis(m)": 7083131.272910544,
        "Time(s)": 153
    },
    {
        "Altitude(m)": 710574.8388588292,
        "Argument of Periapsis(deg)": 0.009231992961792466,
        "Eccentricity": 0.0,
        "Inclination(deg)": 45.0,
        "Latitude(deg)": -27.044225669145913,
        "Longitude(deg)": 13.864061518725894,
        "Mean Anomaly(deg)": -39.74292440151548,
        "RAAN(deg)": 144.9912852685023,
        "Satellite Name": "Constellation 1 657",
        "Satellite Number": 657,
        "Semi-Major Axis(m)": 7083131.272910544,
        "Time(s)": 154
    },
    {
        "Altitude(m)": 710560.9829269749,
        "Argument of Periapsis(deg)": 0.009291940968037872,
        "Eccentricity": 0.0,
        "Inclination(deg)": 45.0,
        "Latitude(deg)": -27.007116438996064,
        "Longitude(deg)": 13.913803528279011,
        "Mean Anomaly(deg)": -39.682223261265634,
        "RAAN(deg)": 144.99122867933676,
        "Satellite Name": "Constellation 1 657",
        "Satellite Number": 657,
        "Semi-Major Axis(m)": 7083131.272910544,
        "Time(s)": 155
    },
    {
        "Altitude(m)": 710547.1268914174,
        "Argument of Periapsis(deg)": 0.009351888974283276,
        "Eccentricity": 0.0,
        "Inclination(deg)": 45.0,
        "Latitude(deg)": -26.969986360902887,
        "Longitude(deg)": 13.963510153345839,
        "Mean Anomaly(deg)": -39.62152212101566,
        "RAAN(deg)": 144.99117209017115,
        "Satellite Name": "Constellation 1 657",
        "Satellite Number": 657,
        "Semi-Major Axis(m)": 7083131.272910544,
        "Time(s)": 156
    },
    {
        "Altitude(m)": 710533.2707998989,
        "Argument of Periapsis(deg)": 0.00941183698052868,
        "Eccentricity": 0.0,
        "Inclination(deg)": 45.0,
        "Latitude(deg)": -26.932835480903233,
        "Longitude(deg)": 14.01318179008204,
        "Mean Anomaly(deg)": -39.56082098076581,
        "RAAN(deg)": 144.9911155010056,
        "Satellite Name": "Constellation 1 657",
        "Satellite Number": 657,
        "Semi-Major Axis(m)": 7083131.272910544,
        "Time(s)": 157
    },
    {
        "Altitude(m)": 710519.4147001478,
        "Argument of Periapsis(deg)": 0.009471784986774088,
        "Eccentricity": 0.0,
        "Inclination(deg)": 45.0,
        "Latitude(deg)": -26.895663844967928,
        "Longitude(deg)": 14.062818330366033,
        "Mean Anomaly(deg)": -39.50011984051586,
        "RAAN(deg)": 144.99105891184004,
        "Satellite Name": "Constellation 1 657",
        "Satellite Number": 657,
        "Semi-Major Axis(m)": 7083131.272910544,
        "Time(s)": 158
    },
    {
        "Altitude(m)": 710505.558639878,
        "Argument of Periapsis(deg)": 0.009531732993019492,
        "Eccentricity": 0.0,
        "Inclination(deg)": 45.0,
        "Latitude(deg)": -26.85847149900117,
        "Longitude(deg)": 14.112419834185475,
        "Mean Anomaly(deg)": -39.439418700265975,
        "RAAN(deg)": 144.99100232267446,
        "Satellite Name": "Constellation 1 657",
        "Satellite Number": 657,
        "Semi-Major Axis(m)": 7083131.272910544,
        "Time(s)": 159
    },
    {
        "Altitude(m)": 710491.7026667919,
        "Argument of Periapsis(deg)": 0.009591680999264898,
        "Eccentricity": 0.0,
        "Inclination(deg)": 45.0,
        "Latitude(deg)": -26.82125848884042,
        "Longitude(deg)": 14.161986361540976,
        "Mean Anomaly(deg)": -39.37871756001602,
        "RAAN(deg)": 144.9909457335089,
        "Satellite Name": "Constellation 1 657",
        "Satellite Number": 657,
        "Semi-Major Axis(m)": 7083131.272910544,
        "Time(s)": 160
    },
    {
        "Altitude(m)": 710477.8468285751,
        "Argument of Periapsis(deg)": 0.009651629005510304,
        "Eccentricity": 0.0,
        "Inclination(deg)": 45.0,
        "Latitude(deg)": -26.784024860256906,
        "Longitude(deg)": 14.211517972444684,
        "Mean Anomaly(deg)": -39.318016419766174,
        "RAAN(deg)": 144.99088914434333,
        "Satellite Name": "Constellation 1 657",
        "Satellite Number": 657,
        "Semi-Major Axis(m)": 7083131.272910544,
        "Time(s)": 161
    },
    {
        "Altitude(m)": 710463.9911729126,
        "Argument of Periapsis(deg)": 0.00971157701175571,
        "Eccentricity": 0.0,
        "Inclination(deg)": 45.0,
        "Latitude(deg)": -26.74677065895535,
        "Longitude(deg)": 14.261014726920628,
        "Mean Anomaly(deg)": -39.2573152795163,
        "RAAN(deg)": 144.99083255517775,
        "Satellite Name": "Constellation 1 657",
        "Satellite Number": 657,
        "Semi-Major Axis(m)": 7083131.272910544,
        "Time(s)": 162
    },
    {
        "Altitude(m)": 710450.1357474659,
        "Argument of Periapsis(deg)": 0.009771525018001118,
        "Eccentricity": 0.0,
        "Inclination(deg)": 45.0,
        "Latitude(deg)": -26.709495930574633,
        "Longitude(deg)": 14.31047651690684,
        "Mean Anomaly(deg)": -39.19661413926645,
        "RAAN(deg)": 144.9907759660122,
        "Satellite Name": "Constellation 1 657",
        "Satellite Number": 657,
        "Semi-Major Axis(m)": 7083131.272910544,
        "Time(s)": 163
    },
    {
        "Altitude(m)": 710436.2805998927,
        "Argument of Periapsis(deg)": 0.00983147302424652,
        "Eccentricity": 0.0,
        "Inclination(deg)": 45.0,
        "Latitude(deg)": -26.67220072068639,
        "Longitude(deg)": 14.359903738643352,
        "Mean Anomaly(deg)": -39.135912999016476,
        "RAAN(deg)": 144.9907193768466,
        "Satellite Name": "Constellation 1 657",
        "Satellite Number": 657,
        "Semi-Major Axis(m)": 7083131.272910544,
        "Time(s)": 164
    },
    {
        "Altitude(m)": 710422.4257778282,
        "Argument of Periapsis(deg)": 0.009891421030491928,
        "Eccentricity": 0.0,
        "Inclination(deg)": 45.0,
        "Latitude(deg)": -26.63488507479741,
        "Longitude(deg)": 14.409296284089212,
        "Mean Anomaly(deg)": -39.07521185876663,
        "RAAN(deg)": 144.99066278768103,
        "Satellite Name": "Constellation 1 657",
        "Satellite Number": 657,
        "Semi-Major Axis(m)": 7083131.272910544,
        "Time(s)": 165
    },
    {
        "Altitude(m)": 710408.5713289041,
        "Argument of Periapsis(deg)": 0.009951369036737332,
        "Eccentricity": 0.0,
        "Inclination(deg)": 45.0,
        "Latitude(deg)": -26.59754903834777,
        "Longitude(deg)": 14.458654213310872,
        "Mean Anomaly(deg)": -39.014510718516675,
        "RAAN(deg)": 144.99060619851548,
        "Satellite Name": "Constellation 1 657",
        "Satellite Number": 657,
        "Semi-Major Axis(m)": 7083131.272910544,
        "Time(s)": 166
    },
    {
        "Altitude(m)": 710394.7173007289,
        "Argument of Periapsis(deg)": 0.010011317042982738,
        "Eccentricity": 0.0,
        "Inclination(deg)": 45.0,
        "Latitude(deg)": -26.560192656712,
        "Longitude(deg)": 14.507977586383932,
        "Mean Anomaly(deg)": -38.95380957826681,
        "RAAN(deg)": 144.9905496093499,
        "Satellite Name": "Constellation 1 657",
        "Satellite Number": 657,
        "Semi-Major Axis(m)": 7083131.272910544,
        "Time(s)": 167
    },
    {
        "Altitude(m)": 710380.8637409069,
        "Argument of Periapsis(deg)": 0.010071265049228144,
        "Eccentricity": 0.0,
        "Inclination(deg)": 45.0,
        "Latitude(deg)": -26.52281597519854,
        "Longitude(deg)": 14.557266463393686,
        "Mean Anomaly(deg)": -38.89310843801684,
        "RAAN(deg)": 144.99049302018435,
        "Satellite Name": "Constellation 1 657",
        "Satellite Number": 657,
        "Semi-Major Axis(m)": 7083131.272910544,
        "Time(s)": 168
    },
    {
        "Altitude(m)": 710367.0106970258,
        "Argument of Periapsis(deg)": 0.01013121305547355,
        "Eccentricity": 0.0,
        "Inclination(deg)": 45.0,
        "Latitude(deg)": -26.48541903905025,
        "Longitude(deg)": 14.60652090443374,
        "Mean Anomaly(deg)": -38.83240729776699,
        "RAAN(deg)": 144.9904364310188,
        "Satellite Name": "Constellation 1 657",
        "Satellite Number": 657,
        "Semi-Major Axis(m)": 7083131.272910544,
        "Time(s)": 169
    },
    {
        "Altitude(m)": 710353.158216655,
        "Argument of Periapsis(deg)": 0.010191161061718957,
        "Eccentricity": 0.0,
        "Inclination(deg)": 45.0,
        "Latitude(deg)": -26.44800189344425,
        "Longitude(deg)": 14.655740969606523,
        "Mean Anomaly(deg)": -38.77170615751712,
        "RAAN(deg)": 144.99037984185318,
        "Satellite Name": "Constellation 1 657",
        "Satellite Number": 657,
        "Semi-Major Axis(m)": 7083131.272910544,
        "Time(s)": 170
    }
]